IRIDIUM 150             
1 43257U 18030J   26001.95952998  .00000105  00000+0  30463-4 0  9993
2 43257  86.3968 359.9530 0002261  87.7307 272.4148 14.34217484406332
IRIDIUM 143             
1 43258U 18030K   26001.94050073 -.00000009  00000+0 -10249-4 0  9991
2 43258  86.3969   0.0474 0002275  87.0859 273.0597 14.34216073406265
IRIDIUM 161             
1 43478U 18047C   26001.91364034  .00000741  00000+0  21442-3 0  9992
2 43478  86.4522 157.9567 0001681  95.9124 264.2268 14.43275987401152
IRIDIUM 152             
1 43479U 18047D   26001.91322289  .00000558  00000+0  19226-3 0  9992
2 43479  86.3997 157.8176 0001885  97.2778 262.8632 14.34220881398651
IRIDIUM 147             
1 43480U 18047E   26001.91956793  .00000561  00000+0  19342-3 0  9990
2 43480  86.4000 157.8173 0002036  90.5583 269.5846 14.34218074398657
IRIDIUM 110             
1 43481U 18047F   26001.92590379  .00000039  00000+0  70421-5 0  9993
2 43481  86.4002 157.9020 0001548 102.1186 258.0184 14.34217907398649
IRIDIUM 162             
1 43482U 18047G   26001.97666417  .00000559  00000+0  16007-3 0  9991
2 43482  86.4521 157.8235 0002177 101.3175 258.8271 14.43270196401156
IRIDIUM 160             
1 43569U 18061A   26001.80197225  .00000464  00000+0  15866-3 0  9998
2 43569  86.3995 126.3730 0001809  94.6929 265.4473 14.34218582389524
